[Satellite]
VERSION=1.1
NAME=ORBCOMM FM34 [+]
NICKNAME=ORBCOMM FM34 [+]
TLE1=1 25986U 99065G   17186.20478624 -.00000012  00000-0  47092-4 0  9995
TLE2=2 25986  45.0413  76.7227 0004163 306.9695  53.0770 14.32484207918287
